QZS-3 (MICHIBIKI-3)     
1 42917U 17048A   26201.85735765 -.00000348  00000+0  00000+0 0  9994
2 42917   0.0593 206.7674 0002778 279.9036 247.6293  1.00269934 32590
AMAZONAS 5              
1 42934U 17053A   26201.82014095 -.00000283  00000+0  00000+0 0  9990
2 42934   0.0329 323.2651 0001208 134.6080  74.9589  1.00270529 32387
ASIASAT 9               
1 42942U 17057A   26201.28611594 -.00000361  00000+0  00000+0 0  9997
2 42942   0.0156  47.3414 0002045  64.2903  51.5396  1.00275714 32194
INTELSAT 37E (IS-37E)   
1 42950U 17059A   26201.82863432 -.00000141  00000+0  00000+0 0  9994
2 42950   0.0186  65.5236 0002851  58.2327  95.1452  1.00272334 32404
BSAT-4A                 
1 42951U 17059B   26201.76017132 -.00000351  00000+0  00000+0 0  9999
2 42951   0.0356 346.5643 0003515  96.4013 239.0502  1.00272687 32138
QZS-4 (MICHIBIKI-4)     
1 42965U 17062A   26201.71876691 -.00000359  00000+0  00000+0 0  9994
2 42965  40.0883 343.0577 0746992 268.6754  84.8963  1.00289508 32146
SES-11 (ECHOSTAR 105)   
1 42967U 17063A   26201.66881274 -.00000090  00000+0  00000+0 0  9996
2 42967   0.0216 333.2042 0002876 133.9221 327.1232  1.00271784 32050
KOREASAT 5A             
1 42984U 17067A   26201.85458432 -.00000358  00000+0  00000+0 0  9993
2 42984   0.0091 352.8484 0001005 100.1868 266.3790  1.00272862 31862
ALCOMSAT 1              
1 43039U 17078A   26201.83239434 -.00000186  00000+0  00000+0 0  9993
2 43039   0.0392 264.8097 0002431 214.3143  94.3212  1.00272520 31632
SBIRS GEO-3 (USA 282)   
1 43162U 18009A   26201.72934029  .00000127  00000+0  00000+0 0  9999
2 43162   2.2090  13.6645 0002006  99.3841 288.6050  1.00272462 31184
AL YAH 3                
1 43174U 18012A   26201.82820097 -.00000157  00000+0  00000+0 0  9990
2 43174   1.6365  82.7025 0003669  33.5365 100.3946  1.00272192 31185
SES-14                  
1 43175U 18012B   26201.84350374 -.00000279  00000+0  00000+0 0  9994
2 43175   0.0128  35.2987 0001026  72.7190  86.7442  1.00271335  7361
GOES 17                 
1 43226U 18022A   26201.60063200 -.00000184  00000+0  00000+0 0  9990
2 43226   1.0209  85.1825 0000597  59.4321 280.4838  1.00272164 30756
HISPASAT 30W-6          
1 43228U 18023A   26201.83239434 -.00000217  00000+0  00000+0 0  9999
2 43228   0.0433  52.6465 0005266  42.7929 112.8286  1.00270186 30748
SUPERBIRD-B3            
1 43271U 18033A   26201.79301417 -.00000093  00000+0  00000+0 0  9996
2 43271   0.0367 245.1468 0001434 252.6037 248.2982  1.00272056 30395
HYLAS 4                 
1 43272U 18033B   26201.68285280 -.00000234  00000+0  00000+0 0  9991
2 43272   0.0425 247.9188 0000920 228.1081  34.7583  1.00271617 30405
IRNSS-1I                
1 43286U 18035A   26200.73725213  .00000063  00000+0  00000+0 0  9997
2 43286  28.8289  73.6878 0018365 178.9692   5.3277  1.00273777 30401
USA 283                 
1 43339U 18036A   26200.50433174 -.00000322  00000+0  00000+0 0  9993
2 43339   0.0121 113.1212 0000802  85.3615  54.4575  1.00271912 25614
COSMOS 2526             
1 43432U 18037A   26201.00126137 -.00000347  00000+0  00000+0 0  9999
2 43432   0.0287  96.0594 0000574 109.7113 220.5338  1.00275110 30289
APSTAR-6C               
1 43450U 18041A   26200.68559755 -.00000322  00000+0  00000+0 0  9996
2 43450   0.0842 293.1098 0000533 294.7366  90.4374  1.00269212 30139
BANGABANDHUSAT-1        
1 43463U 18044A   26201.64194595 -.00000363  00000+0  00000+0 0  9992
2 43463   0.0361  96.9206 0001957  23.2876 168.4072  1.00272169 30047
SES-12                  
1 43488U 18049A   26201.77975411 -.00000270  00000+0  00000+0 0  9999
2 43488   0.0101  11.8016 0000638 242.3086  60.1498  1.00272200 29755
FENGYUN 2H              
1 43491U 18050A   26201.84782429 -.00000128  00000+0  00000+0 0  9990
2 43491   3.1162  78.6829 0002089 129.0421 115.1487  1.00267064 29772
BEIDOU-2 IGSO-7         
1 43539U 18057A   26197.82826650 -.00000084  00000+0  00000+0 0  9998
2 43539  55.1987 162.7987 0104914 237.9691 299.1450  1.00242392 29427
TELSTAR 19V             
1 43562U 18059A   26201.81970762 -.00000280  00000+0  00000+0 0  9993
2 43562   0.0301 166.5285 0003081 322.6728  41.4728  1.00270792 29488
TELKOM 4 (MERAH PUTIH)  
1 43587U 18064A   26201.85354432 -.00000344  00000+0  00000+0 0  9991
2 43587   0.0188  72.8144 0001242  45.9469 235.1299  1.00271902 29215
TELSTAR 18V             
1 43611U 18069A   26201.85952433 -.00000294  00000+0  00000+0 0  9993
2 43611   0.0359 240.6830 0001923 236.0901 269.2905  1.00271411 28979
AZERSPACE 2 (IS-38)     
1 43632U 18074A   26201.84112367  .00000136  00000+0  00000+0 0  9999
2 43632   0.0162  53.8449 0001531  57.1460 175.5281  1.00272210 28784
HORIZONS-3E             
1 43633U 18074B   26201.56225552 -.00000032  00000+0  00000+0 0  9996
2 43633   0.0423 238.4699 0000569  58.8170  12.4432  1.00271973 28679
AEHF-4 (USA 288)        
1 43651U 18079A   26201.81884095 -.00000276  00000+0  00000+0 0  9992
2 43651   1.4353   5.2466 0059841 355.2654 165.3478  1.00273818 28630
BEIDOU-3 G1             
1 43683U 18085A   26201.79258083 -.00000111  00000+0  00000+0 0  9991
2 43683   2.9519  96.4662 0008191 356.9288 290.4800  1.00272695 28392
